[{"OBJECT_NAME":"OBJECT L","OBJECT_ID":"2023-085L","EPOCH":"2026-03-09T23:02:21.999840","MEAN_MOTION":15.29079976,"ECCENTRICITY":0.0005428,"INCLINATION":97.486,"RA_OF_ASC_NODE":178.8598,"ARG_OF_PERICENTER":50.8528,"MEAN_ANOMALY":309.3193,"EPHEMERIS_TYPE":0,"CLASSIFICATION_TYPE":"U","NORAD_CAT_ID":57014,"ELEMENT_SET_NO":999,"REV_AT_EPOCH":15144,"BSTAR":0.00063462603,"MEAN_MOTION_DOT":0.00017871,"MEAN_MOTION_DDOT":0},{"OBJECT_NAME":"STARLINK-32735","OBJECT_ID":"2025-034R","EPOCH":"2026-03-09T20:15:25.482816","MEAN_MOTION":15.30194059,"ECCENTRICITY":0.00012964,"INCLINATION":53.157,"RA_OF_ASC_NODE":269.9641,"ARG_OF_PERICENTER":88.0091,"MEAN_ANOMALY":272.1058,"EPHEMERIS_TYPE":0,"CLASSIFICATION_TYPE":"U","NORAD_CAT_ID":63044,"ELEMENT_SET_NO":999,"REV_AT_EPOCH":5893,"BSTAR":0.0012728841,"MEAN_MOTION_DOT":0.00037524,"MEAN_MOTION_DDOT":0}]
